{
  "type": "FeatureCollection",
  "features": [
    {
      "type": "Feature",
      "properties": {
        "norad_id": 66373,
        "name": "STARLINK-35809",
        "group": "last-30-days",
        "lat": 34.77003723966434,
        "lon": -18.84512081635286,
        "alt_km": 341.0831070862805,
        "timestamp": "2025-12-05T16:54:13.484637+00:00",
        "meta_object_name": "STARLINK-35809",
        "meta_object_id": "2025-254AB",
        "meta_epoch": "2025-12-04T23:57:08.527104",
        "meta_mean_motion": 15.74162628,
        "meta_eccentricity": 0.00011507,
        "meta_inclination": 53.1573,
        "meta_ra_of_asc_node": 313.293,
        "meta_arg_of_pericenter": 93.3239,
        "meta_mean_anomaly": 266.7912,
        "meta_ephemeris_type": 0,
        "meta_classification_type": "U",
        "meta_norad_cat_id": 66373,
        "meta_element_set_no": 999,
        "meta_rev_at_epoch": 446,
        "meta_bstar": 0.0017555622,
        "meta_mean_motion_dot": 0.00264408,
        "meta_mean_motion_ddot": 0,
        "tle_line1": "1 66373U 25254AB  25338.99801536  .00264408  00000+0  17556-2 0  9994",
        "tle_line2": "2 66373  53.1573 313.2930 0001150  93.3239 266.7912 15.74162628  4467"
      },
      "geometry": {
        "type": "Point",
        "coordinates": [
          -18.84512081635286,
          34.77003723966434
        ]
      }
    },
    {
      "type": "Feature",
      "properties": {
        "norad_id": 66374,
        "name": "STARLINK-35831",
        "group": "last-30-days",
        "lat": 35.97272237085274,
        "lon": -17.24490208113341,
        "alt_km": 340.9438594180883,
        "timestamp": "2025-12-05T16:54:13.484646+00:00",
        "meta_object_name": "STARLINK-35831",
        "meta_object_id": "2025-254AC",
        "meta_epoch": "2025-12-05T04:30:56.234304",
        "meta_mean_motion": 15.74184186,
        "meta_eccentricity": 9.866e-05,
        "meta_inclination": 53.1576,
        "meta_ra_of_asc_node": 312.3471,
        "meta_arg_of_pericenter": 94.6782,
        "meta_mean_anomaly": 265.4351,
        "meta_ephemeris_type": 0,
        "meta_classification_type": "U",
        "meta_norad_cat_id": 66374,
        "meta_element_set_no": 999,
        "meta_rev_at_epoch": 449,
        "meta_bstar": 0.0022573018,
        "meta_mean_motion_dot": 0.00343742,
        "meta_mean_motion_ddot": 0,
        "tle_line1": "1 66374U 25254AC  25339.18815086  .00343742  00000+0  22573-2 0  9996",
        "tle_line2": "2 66374  53.1576 312.3471 0000986  94.6782 265.4351 15.74184186  4493"
      },
      "geometry": {
        "type": "Point",
        "coordinates": [
          -17.24490208113341,
          35.97272237085274
        ]
      }
    },
    {
      "type": "Feature",
      "properties": {
        "norad_id": 66375,
        "name": "STARLINK-35826",
        "group": "last-30-days",
        "lat": 37.722856729470415,
        "lon": -14.772026187428551,
        "alt_km": 341.47701927416165,
        "timestamp": "2025-12-05T16:54:13.484655+00:00",
        "meta_object_name": "STARLINK-35826",
        "meta_object_id": "2025-254AD",
        "meta_epoch": "2025-12-05T01:27:35.768160",
        "meta_mean_motion": 15.74369654,
        "meta_eccentricity": 0.00027637,
        "meta_inclination": 53.1573,
        "meta_ra_of_asc_node": 312.9744,
        "meta_arg_of_pericenter": 186.5703,
        "meta_mean_anomaly": 173.5282,
        "meta_ephemeris_type": 0,
        "meta_classification_type": "U",
        "meta_norad_cat_id": 66375,
        "meta_element_set_no": 999,
        "meta_rev_at_epoch": 447,
        "meta_bstar": 0.002728124,
        "meta_mean_motion_dot": 0.00422905,
        "meta_mean_motion_ddot": 0,
        "tle_line1": "1 66375U 25254AD  25339.06083065  .00422905  00000+0  27281-2 0  9998",
        "tle_line2": "2 66375  53.1573 312.9744 0002763 186.5703 173.5282 15.74369654  4474"
      },
      "geometry": {
        "type": "Point",
        "coordinates": [
          -14.772026187428551,
          37.722856729470415
        ]
      }
    },
    {
      "type": "Feature",
      "properties": {
        "norad_id": 66376,
        "name": "SHIYAN-32 01",
        "group": "last-30-days",
        "lat": 49.34930337250456,
        "lon": -87.03005608245357,
        "alt_km": 426.5410027934122,
        "timestamp": "2025-12-05T16:54:13.484664+00:00",
        "meta_object_name": "SHIYAN-32 01",
        "meta_object_id": "2025-255A",
        "meta_epoch": "2025-12-05T05:42:31.275936",
        "meta_mean_motion": 15.42407932,
        "meta_eccentricity": 0.00135051,
        "meta_inclination": 52.9957,
        "meta_ra_of_asc_node": 213.7394,
        "meta_arg_of_pericenter": 18.938,
        "meta_mean_anomaly": 341.2123,
        "meta_ephemeris_type": 0,
        "meta_classification_type": "U",
        "meta_norad_cat_id": 66376,
        "meta_element_set_no": 999,
        "meta_rev_at_epoch": 419,
        "meta_bstar": 0.00068343444,
        "meta_mean_motion_dot": 0.00029783,
        "meta_mean_motion_ddot": 0,
        "tle_line1": "1 66376U 25255A   25339.23786199  .00029783  00000+0  68343-3 0  9999",
        "tle_line2": "2 66376  52.9957 213.7394 0013505  18.9380 341.2123 15.42407932  4196"
      },
      "geometry": {
        "type": "Point",
        "coordinates": [
          -87.03005608245357,
          49.34930337250456
        ]
      }
    },
    {
      "type": "Feature",
      "properties": {
        "norad_id": 66377,
        "name": "CZ-11 DEB",
        "group": "last-30-days",
        "lat": 24.3041600055115,
        "lon": 11.455958234527124,
        "alt_km": 438.2187945395108,
        "timestamp": "2025-12-05T16:54:13.484673+00:00",
        "meta_object_name": "CZ-11 DEB",
        "meta_object_id": "2025-255B",
        "meta_epoch": "2025-12-05T03:49:57.444960",
        "meta_mean_motion": 15.43766179,
        "meta_eccentricity": 0.00138166,
        "meta_inclination": 52.9949,
        "meta_ra_of_asc_node": 213.9635,
        "meta_arg_of_pericenter": 16.3255,
        "meta_mean_anomaly": 343.8192,
        "meta_ephemeris_type": 0,
        "meta_classification_type": "U",
        "meta_norad_cat_id": 66377,
        "meta_element_set_no": 999,
        "meta_rev_at_epoch": 404,
        "meta_bstar": 0.0013050272,
        "meta_mean_motion_dot": 0.00060195,
        "meta_mean_motion_ddot": 0,
        "tle_line1": "1 66377U 25255B   25339.15969265  .00060195  00000+0  13050-2 0  9994",
        "tle_line2": "2 66377  52.9949 213.9635 0013816  16.3255 343.8192 15.43766179  4046"
      },
      "geometry": {
        "type": "Point",
        "coordinates": [
          11.455958234527124,
          24.3041600055115
        ]
      }
    },
    {
      "type": "Feature",
      "properties": {
        "norad_id": 66378,
        "name": "SHIYAN-32 02",
        "group": "last-30-days",
        "lat": -1.739549579523478,
        "lon": 32.617182883320595,
        "alt_km": 442.1573561372188,
        "timestamp": "2025-12-05T16:54:13.484683+00:00",
        "meta_object_name": "SHIYAN-32 02",
        "meta_object_id": "2025-255C",
        "meta_epoch": "2025-12-05T05:14:50.286048",
        "meta_mean_motion": 15.44376776,
        "meta_eccentricity": 0.00121626,
        "meta_inclination": 52.9936,
        "meta_ra_of_asc_node": 213.6194,
        "meta_arg_of_pericenter": 13.4657,
        "meta_mean_anomaly": 346.667,
        "meta_ephemeris_type": 0,
        "meta_classification_type": "U",
        "meta_norad_cat_id": 66378,
        "meta_element_set_no": 999,
        "meta_rev_at_epoch": 405,
        "meta_bstar": 0.0016796731,
        "meta_mean_motion_dot": 0.00079363,
        "meta_mean_motion_ddot": 0,
        "tle_line1": "1 66378U 25255C   25339.21863757  .00079363  00000+0  16797-2 0  9999",
        "tle_line2": "2 66378  52.9936 213.6194 0012162  13.4657 346.6670 15.44376776  4051"
      },
      "geometry": {
        "type": "Point",
        "coordinates": [
          32.617182883320595,
          -1.739549579523478
        ]
      }
    },
    {
      "type": "Feature",
      "properties": {
        "norad_id": 66379,
        "name": "SHIYAN-32 03",
        "group": "last-30-days",
        "lat": 49.986858250123035,
        "lon": -32.49272865660217,
        "alt_km": 430.26244627671895,
        "timestamp": "2025-12-05T16:54:13.484693+00:00",
        "meta_object_name": "SHIYAN-32 03",
        "meta_object_id": "2025-255D",
        "meta_epoch": "2025-12-05T07:07:02.067744",
        "meta_mean_motion": 15.42749389,
        "meta_eccentricity": 0.00155383,
        "meta_inclination": 52.996,
        "meta_ra_of_asc_node": 213.3945,
        "meta_arg_of_pericenter": 20.0996,
        "meta_mean_anomaly": 340.0617,
        "meta_ephemeris_type": 0,
        "meta_classification_type": "U",
        "meta_norad_cat_id": 66379,
        "meta_element_set_no": 999,
        "meta_rev_at_epoch": 408,
        "meta_bstar": 0.00058546258,
        "meta_mean_motion_dot": 0.00025763,
        "meta_mean_motion_ddot": 0,
        "tle_line1": "1 66379U 25255D   25339.29655171  .00025763  00000+0  58546-3 0  9991",
        "tle_line2": "2 66379  52.9960 213.3945 0015538  20.0996 340.0617 15.42749389  4084"
      },
      "geometry": {
        "type": "Point",
        "coordinates": [
          -32.49272865660217,
          49.986858250123035
        ]
      }
    }
  ]
}